NOAA 1                  
1 04793U 70106A   25316.05599174 -.00000050  00000+0 -43935-4 0  9998
2 04793 101.3712 354.9717 0031731  53.0707   0.6451 12.54046516513473
NOAA 2 (ITOS-D)         
1 06235U 72082A   25316.06015108 -.00000019  00000+0  17561-3 0  9996
2 06235 102.0212 327.1612 0003949 223.2780 159.6865 12.53207138427754
NOAA 3                  
1 06920U 73086A   25316.31027469 -.00000028  00000+0  13686-3 0  9997
2 06920 102.2925 323.1627 0006477 162.8425 208.6281 12.40387803355013
NOAA 4                  
1 07529U 74089A   25316.27574358 -.00000020  00000+0  16718-3 0  9997
2 07529 102.0079 321.7704 0008806 250.4606 120.6833 12.53198361332351
NOAA 5                  
1 09057U 76077A   25315.91646468 -.00000019  00000+0  20359-3 0  9990
2 09057 102.2796 295.9067 0010108  17.7649   9.8130 12.37823935227591
TIROS N                 
1 11060U 78096A   25316.08177738  .00000277  00000+0  15161-3 0  9998
2 11060  98.4744 341.7761 0011061 146.9498 213.2372 14.19269805647951
NOAA 6                  
1 11416U 79057A   25316.30277221  .00000829  00000+0  30460-3 0  9996
2 11416  98.5875 342.1128 0009939 175.0240 185.1046 14.35318364419846
NOAA 7                  
1 12553U 81059A   25316.15648621  .00000116  00000+0  78601-4 0  9992
2 12553  98.8266  20.0721 0011732 164.3588 195.7952 14.17742366293999
NOAA 8                  
1 13923U 83022A   25316.26343974  .00000406  00000+0  17546-3 0  9993
2 13923  98.7385 323.6959 0014977 169.0390 191.1121 14.29705608220072
NOAA 9                  
1 15427U 84123A   25316.28199664  .00000323  00000+0  18398-3 0  9998
2 15427  99.1180 332.7019 0013799 242.5718 127.9660 14.16987206112708
NOAA 10                 
1 16969U 86073A   25315.99233531  .00000284  00000+0  12949-3 0  9997
2 16969  98.6895 304.7250 0010966 272.2003 153.1783 14.29080155 38393
NOAA 11                 
1 19531U 88089A   25316.26067134  .00000228  00000+0  13744-3 0  9991
2 19531  98.5923 264.3742 0010638 195.2632 164.8223 14.15786631916780
NOAA 12                 
1 21263U 91032A   25316.21222082  .00000327  00000+0  15330-3 0  9991
2 21263  98.6030 303.1572 0012730 305.3392  54.6598 14.26667912794024
NOAA 13                 
1 22739U 93050A   25316.29582659  .00000359  00000+0  21285-3 0  9990
2 22739  98.6767 262.4274 0010118  33.7326 326.4489 14.13586323662736
NOAA 14                 
1 23455U 94089A   25316.27143846  .00000213  00000+0  13204-3 0  9999
2 23455  98.4849 291.2000 0009343 354.0422   6.0640 14.14622455592530
NOAA 15                 
1 25338U 98030A   25316.32964685  .00000380  00000+0  17350-3 0  9990
2 25338  98.5251 337.6461 0009132 262.2202  97.7942 14.27052420430365
NOAA 16                 
1 26536U 00055A   25316.26578065  .00000241  00000+0  14857-3 0  9992
2 26536  98.4777 336.8697 0010014 198.4615 161.6196 14.13855633593071
NOAA 17                 
1 27453U 02032A   25316.30069584  .00000613  00000+0  27546-3 0  9996
2 27453  98.8351 274.8341 0010574 259.9905 100.0082 14.26105727216074
NOAA 18                 
1 28654U 05018A   25316.26553445  .00000280  00000+0  17152-3 0  9998
2 28654  98.8320  33.9100 0014920  50.4832 309.7657 14.13665363 55668
NOAA 19                 
1 33591U 09005A   25316.22631040  .00000143  00000+0  99970-4 0  9995
2 33591  98.9805  21.6739 0012804 284.9069  75.0685 14.13426352863833
SUOMI NPP               
1 37849U 11061A   25316.31414022  .00000277  00000+0  15225-3 0  9997
2 37849  98.7724 253.9367 0000668 182.5936 177.5236 14.19542394727671
NOAA 20 (JPSS-1)        
1 43013U 17073A   25316.25850091  .00000239  00000+0  13415-3 0  9996
2 43013  98.7550 252.8960 0001488 131.2471 228.8833 14.19513506413691
NOAA 21 (JPSS-2)        
1 54234U 22150A   25316.29355082  .00000300  00000+0  16318-3 0  9993
2 54234  98.7413 252.9889 0002733  92.6027 267.5462 14.19511392155779
